CCSDS_OMM_VERS,COMMENT,CREATION_DATE,ORIGINATOR,OBJECT_NAME,OBJECT_ID,CENTER_NAME,REF_FRAME,TIME_SYSTEM,MEAN_ELEMENT_THEORY,EPOCH,MEAN_MOTION,ECCENTRICITY,INCLINATION,RA_OF_ASC_NODE,ARG_OF_PERICENTER,MEAN_ANOMALY,EPHEMERIS_TYPE,CLASSIFICATION_TYPE,NORAD_CAT_ID,ELEMENT_SET_NO,REV_AT_EPOCH,BSTAR,MEAN_MOTION_DOT,MEAN_MOTION_DDOT,SEMIMAJOR_AXIS,PERIOD,APOAPSIS,PERIAPSIS,OBJECT_TYPE,RCS_SIZE,COUNTRY_CODE,LAUNCH_DATE,SITE,DECAY_DATE,FILE,GP_ID,TLE_LINE0,TLE_LINE1,TLE_LINE2
3.0,GENERATED VIA SPACE-TRACK.ORG API,2004-08-17T14:51:00,18 SPCS,SL-12 R/B(AUX MOTOR),1992-074F,EARTH,TEME,UTC,SGP4,1993-06-03T06:56:09.339935,15.83674054,0.0347283,46.7409,185.1472,86.7162,277.4969,0,U,22216,999,3,0.0021711,0.42974916,4.8583e-05,6698.202,90.927,552.684,87.449,ROCKET BODY,,,,,1993-06-03,34869,19190821,0 SL-12 R/B(AUX MOTOR),1 22216U 92074  F 93154.28899699  .42974916 +48583-4 +21711-2 0  9995,2 22216 046.7409 185.1472 0347283 086.7162 277.4969 15.83674054000030
3.0,GENERATED VIA SPACE-TRACK.ORG API,2004-08-17T15:25:33,18 SPCS,DELTA R/B,1999-024B,EARTH,TEME,UTC,SGP4,1999-06-05T19:42:51.084575,16.41266835,0.0073554,29.4714,205.372,128.4019,232.2371,0,U,25728,999,473,0.00033454,0.37214362,-6.8095e-06,6540.575,87.737,210.549,114.332,ROCKET BODY,LARGE,US,1999-05-05,AFETR,1999-06-06,35560,30583789,0 DELTA R/B,1 25728U 99024B   99156.82142459 +.37214362 -68095-5 +33454-3 0  9997,2 25728 029.4714 205.3720 0073554 128.4019 232.2371 16.41266835004737
3.0,GENERATED VIA SPACE-TRACK.ORG API,2022-03-06T18:20:12,18 SPCS,COSMOS 1408 DEB,1982-092VC,EARTH,TEME,UTC,SGP4,2022-03-06T05:03:51.550848,16.37050105,0.001554,82.4398,3.4736,202.7734,157.2876,0,U,50112,999,1716,0.0015311,0.1414872,-1.2558e-06,6551.798,87.963,183.845,163.482,DEBRIS,SMALL,CIS,1982-09-16,PKMTR,2022-03-09,3347638,198068926,0 COSMOS 1408 DEB,1 50112U 82092VC  22065.21101332  .14148720 -12558-5  15311-2 0  9995,2 50112  82.4398   3.4736 0015540 202.7734 157.2876 16.37050105 17167
3.0,GENERATED VIA SPACE-TRACK.ORG API,2004-08-16T23:15:14,18 SPCS,DELTA 1 R/B,1975-057B,EARTH,TEME,UTC,SGP4,1981-04-07T02:28:11.399807,16.25735474,0.0004624,32.9231,28.8427,259.8095,102.2489,0,U,7971,999,32177,9.9169e-05,0.02289422,0.0,6582.166,88.575,207.075,200.987,ROCKET BODY,LARGE,US,1975-06-21,AFETR,1981-04-09,34331,12052226,0 DELTA 1 R/B,1 07971U 75057  B 81097.10290972  .02289422 +00000-0 +99169-4 0  9990,2 07971 032.9231 028.8427 0004624 259.8095 102.2489 16.25735474321771
3.0,GENERATED VIA SPACE-TRACK.ORG API,2004-08-17T14:46:57,18 SPCS,SL-6 PLAT,1991-053C,EARTH,TEME,UTC,SGP4,1991-09-03T14:34:53.200415,16.46650803,0.0024791,62.7948,312.2374,117.234,244.5381,0,U,21632,999,521,0.00036453,0.26290119,4.4048e-05,6526.311,87.45,164.355,131.996,DEBRIS,,,,,1991-09-03,34788,18462828,0 SL-6 PLAT,1 21632U 91053  C 91246.60756019  .26290119 +44048-4 +36453-3 0  9996,2 21632 062.7948 312.2374 0024791 117.2340 244.5381 16.46650803005219
3.0,GENERATED VIA SPACE-TRACK.ORG API,2004-08-17T15:08:00,18 SPCS,IUS DEB,1991-054E,EARTH,TEME,UTC,SGP4,1991-09-15T09:13:22.925567,2.32778519,0.7235624,27.0436,349.7136,26.7331,5.0371,0,U,21642,999,102,0.0001,5.3e-07,0.0,24049.544,618.613,35072.755,270.063,DEBRIS,MEDIUM,US,1991-08-02,AFETR,1992-09-22,35209,24014257,0 IUS DEB,1 21642U 91054E   91258.38429312 +.00000053 +00000-0 +10000-3 0  9993,2 21642 027.0436 349.7136 7235624 026.7331 005.0371 02.32778519001026
3.0,GENERATED VIA SPACE-TRACK.ORG API,2004-08-15T23:45:38,18 SPCS,SCOUT X-3 DEB (YO),1962-071D,EARTH,TEME,UTC,SGP4,1980-11-28T02:58:45.307200,15.93161822,0.0012769,90.417,200.6518,87.6552,272.6328,0,U,523,999,95148,0.011328,0.07807957,0.0,6671.582,90.386,301.966,284.928,DEBRIS,SMALL,US,1962-12-19,AFWTR,1980-11-30,34111,11100344,0 SCOUT X-3 DEB (YO),1 00523U 62071  D 80333.12413550  .07807957 +00000-0 +11328-1 0  9993,2 00523 090.4170 200.6518 0012769 087.6552 272.6328 15.93161822951488
3.0,GENERATED VIA SPACE-TRACK.ORG API,2004-08-15T23:39:38,18 SPCS,SALYUT 4 DEB,1974-104K,EARTH,TEME,UTC,SGP4,1975-04-19T14:53:01.090463,16.14671602,0.0001756,51.5899,289.4824,266.7399,93.3374,0,U,7657,999,1816,0.0,0.00760495,0.0,6612.199,89.182,235.226,232.903,DEBRIS,,,,,1975-04-26,33991,9543613,0 SALYUT 4 DEB,1 07657U 74104  K 75109.62015151  .00760495 +00000-0 +00000-0 0  9995,2 07657 051.5899 289.4824 0001756 266.7399 093.3374 16.14671602018161
3.0,GENERATED VIA SPACE-TRACK.ORG API,2004-08-17T14:49:30,18 SPCS,ARIANE 1 DEB,1986-019LR,EARTH,TEME,UTC,SGP4,1992-07-07T05:25:45.102143,2.16118481,0.7364041,24.7599,2.1964,91.1976,345.7489,0,U,17699,999,1593,0.0024345,4.199e-05,0.0,25270.132,666.301,37501.026,282.968,DEBRIS,SMALL,FR,1986-02-22,FRGUI,1989-04-08,34839,18805791,0 ARIANE 1 DEB,1 17699U 86019 LR 92189.22621646  .00004199 +00000-0 +24345-2 0  9997,2 17699 024.7599 002.1964 7364041 091.1976 345.7489 02.16118481015930
3.0,GENERATED VIA SPACE-TRACK.ORG API,2004-08-16T23:16:47,18 SPCS,COSMOS 1355 DEB,1982-038R,EARTH,TEME,UTC,SGP4,1983-11-23T05:10:54.418367,15.99756949,0.0018507,65.0537,263.9126,236.2348,121.5773,0,U,14280,999,8899,0.00038843,0.00200477,3.2251e-06,6653.233,90.013,287.411,262.785,DEBRIS,SMALL,CIS,1982-04-29,TTMTR,1983-11-26,34362,13525607,0 COSMOS 1355 DEB,1 14280U 82038  R 83327.21590762  .00200477 +32251-5 +38843-3 0  9998,2 14280 065.0537 263.9126 0018507 236.2348 121.5773 15.99756949088995
3.0,GENERATED VIA SPACE-TRACK.ORG API,2004-08-15T23:39:05,18 SPCS,SATURN 5 DEB,1973-027Q,EARTH,TEME,UTC,SGP4,1973-10-04T16:12:39.266207,16.07096291,0.0039807,50.088,3.1383,141.4042,218.9764,0,U,6729,999,2282,0.0,-0.00209402,0.0009995,6632.962,89.602,281.23,228.423,DEBRIS,,,,,1973-10-16,33980,9127021,0 SATURN 5 DEB,1 06729U 73027  Q 73277.67545447 -.00209402 +09995-2 +00000-0 0  9993,2 06729 050.0880 003.1383 0039807 141.4042 218.9764 16.07096291022820
3.0,GENERATED VIA SPACE-TRACK.ORG API,2004-08-15T23:45:38,18 SPCS,TITAN 3C TRANSTAGE DEB,1965-082HY,EARTH,TEME,UTC,SGP4,1980-11-11T09:55:55.767360,15.99549747,0.000999,31.8928,339.484,151.131,214.7933,0,U,1992,999,80230,0.022696,-0.06394042,0.90447,6653.808,90.025,282.32,269.026,DEBRIS,SMALL,US,1965-10-15,AFETR,1980-11-12,34111,11161957,0 TITAN 3C TRANSTAGE DEB,1 01992U 65082 HY 80316.41383990 -.06394042 +90447-0 +22696-1 0  9996,2 01992 031.8928 339.4840 0009990 151.1310 214.7933 15.99549747802306
3.0,GENERATED VIA SPACE-TRACK.ORG API,2022-07-30T17:24:47,18 SPCS,ORBCOMM FM 16 DEB,1998-046W,EARTH,TEME,UTC,SGP4,2022-07-30T12:22:14.265696,15.63953382,0.0081887,45.3169,344.0386,313.868,45.5477,0,U,44027,999,18479,0.084212,0.12348805,0.0,6754.387,92.074,431.562,320.943,DEBRIS,MEDIUM,ORB,1998-08-02,ERAS,2022-07-31,3525407,209168142,0 ORBCOMM FM 16 DEB,1 44027U 98046W   22211.51544289  .12348805  00000-0  84212-1 0  9999,2 44027  45.3169 344.0386 0081887 313.8680  45.5477 15.63953382184792
3.0,GENERATED VIA SPACE-TRACK.ORG API,2004-08-15T23:36:23,18 SPCS,OPS 4740,1968-112A,EARTH,TEME,UTC,SGP4,1968-12-28T12:52:07.919327,16.55894292,0.0020492,81.0176,102.3098,109.5805,250.7588,0,U,3604,999,254,0.0,0.21430718,0.0,6502.001,86.962,137.19,110.542,PAYLOAD,,,,,1968-12-28,33926,8790586,0 OPS 4740,1 03604U 68112  A 68363.53620277  .21430718 +00000-0 +00000-0 0  9995,2 03604 081.0176 102.3098 0020492 109.5805 250.7588 16.55894292002543
3.0,GENERATED VIA SPACE-TRACK.ORG API,2004-08-15T23:35:47,18 SPCS,CIS UNKNOWN 2 DEB,1966-101V,EARTH,TEME,UTC,SGP4,1966-11-03T09:27:56.709504,15.3682261,0.0476157,49.6193,47.8158,84.3784,281.0321,0,U,2556,999,21,0.0,0.06870561,0.064853,6833.653,93.699,780.907,130.129,DEBRIS,,,,,1966-11-08,33914,8721521,0 CIS UNKNOWN 2 DEB,1 02556U 66101  V 66307.39440636  .06870561 +64853-1 +00000-0 0  9999,2 02556 049.6193 047.8158 0476157 084.3784 281.0321 15.36822610000213
3.0,GENERATED VIA SPACE-TRACK.ORG API,2021-04-25T19:42:42,18 SPCS,SPACEBEE-8,2019-037G,EARTH,TEME,UTC,SGP4,2021-04-25T09:16:15.090528,16.18815125,0.0004816,44.9858,123.2481,133.1113,227.0208,0,U,44371,999,10336,0.0031371,0.04142189,0.047795,6600.908,88.954,225.952,219.594,PAYLOAD,SMALL,US,2019-06-29,RLLC,2021-04-26,3025031,176122209,0 SPACEBEE-8,1 44371U 19037G   21115.38628577  .04142189  47795-1  31371-2 0  9994,2 44371  44.9858 123.2481 0004816 133.1113 227.0208 16.18815125103364
3.0,GENERATED VIA SPACE-TRACK.ORG API,2005-05-02T23:40:10,18 SPCS,ARIANE 1 DEB,1986-019RP,EARTH,TEME,UTC,SGP4,1989-11-04T04:28:53.770944,15.60506238,0.0023047,98.5298,31.4963,316.5427,44.2571,0,U,18234,999,14010,0.077716,0.06475342,0.0,6764.335,92.277,401.789,370.61,DEBRIS,SMALL,FR,1986-02-22,FRGUI,1989-11-05,131042,44005574,0 ARIANE 1 DEB,1 18234U 86019 RP 89308.18673346  .06475342 +00000-0 +77716-1 0  9998,2 18234 098.5298 031.4963 0023047 316.5427 044.2571 15.60506238140106
3.0,GENERATED VIA SPACE-TRACK.ORG API,2004-08-17T14:42:09,18 SPCS,COSMOS 1260 DEB,1981-028BL,EARTH,TEME,UTC,SGP4,1989-11-12T13:40:55.327584,16.32329988,0.0014907,64.8903,274.5851,333.6126,27.8562,0,U,13919,999,39091,0.0010908,0.06414275,3.6709e-05,6564.426,88.217,196.077,176.506,DEBRIS,,,,,1989-11-13,34692,16790547,0 COSMOS 1260 DEB,1 13919U 81028 BL 89316.57008481  .06414275 +36709-4 +10908-2 0  9990,2 13919 064.8903 274.5851 0014907 333.6126 027.8562 16.32329988390915
3.0,GENERATED VIA SPACE-TRACK.ORG API,2004-08-17T15:29:30,18 SPCS,SL-3 R/B,1977-091B,EARTH,TEME,UTC,SGP4,2001-11-14T05:01:08.528736,16.50410718,0.0155099,81.1553,111.7008,233.7743,125.982,0,U,10363,999,32606,0.0,0.20170948,0.0,6516.395,87.251,239.329,37.191,ROCKET BODY,LARGE,CIS,1977-09-20,PKMTR,2001-11-14,35639,37052091,0 SL-3 R/B,1 10363U 77091B   01318.20912649  .20170948  00000-0  00000+0 0  9993,2 10363 081.1553 111.7008 0155099 233.7743 125.9820 16.50410718326061
